{
  "norad_id": 43766,
  "name": "SPAWAR-CAL-O",
  "history": [
    {
      "epoch": "2026-03-28T16:25:50.605536Z",
      "apogee_km": 475.0865076475884,
      "perigee_km": 463.80374657674565,
      "latitude_deg": -5.8888374315676026e-05,
      "longitude_deg": 78.56932955961271,
      "height_km": 477.5225382071331,
      "semi_major_axis_km": 6847.582127112167,
      "eccentricity": 0.00082385,
      "inclination_deg": 97.4416,
      "raan_deg": 151.1317,
      "arg_perigee_deg": 208.3279,
      "mean_anomaly_deg": 151.7515,
      "mean_motion_rev_day": 15.32134484
    }
  ]
}