{"fetched_at":"2026-03-29T16:36:15Z","count":15609,"tles":[{"name":"SPAWAR-CAL-O","line1":"1 43766U 18099J   26087.68461349  .00022437  00000+0  72369-3 0  9994","line2":"2 43766  97.4416 151.1317 0008238 208.3279 151.7515 15.32134484401184","category":"Other"}]}